[Satellite]
VERSION=1.1
NAME=CZ-6A DEB
NICKNAME=CZ-6A DEB
TLE1=1 54571U 22151LX  22342.30406350  .00000740  00000+0  45753-3 0  9994
TLE2=2 54571  98.7227 346.1404 0061550  33.0164 327.4825 14.07367420  3452
STATUS=0
